[ {"Asteroid": {"classification": {"orbitType": "evil", "spinPeriodH": 4.291146419010421e+299, "type": {"A": 0.17865276091013793, "C": 0.21919235308849794, "B": 0.6161112641608737}, "albedo": 0.6945240166053077, "diameterKM": 0.5529516320911576}, "name": "gc41f2c97b", "orbitals": {"eccentricity": 0.5706897573104117, "longitudeOfTheAscendingNode": 6.091559425744934, "semimajoraxisAU": 3.1108425235372335, "periodYEARS": 9.523988089410539, "meanAnomaly": 0.43139968397976913, "perihelionDATE": 138879923.48282558, "inclination": 0.3705880201235418, "argumentOfPerihelion": 1.720053718829827}, "details": {"a0356cb872": 19.003934040311638}}}, {"Asteroid": {"classification": {"orbitType": "mad", "spinPeriodH": 7.042294879178957e+299, "type": {"A": 0.4318261714867828, "C": 0.10646890987361535, "B": 0.2710418472617565}, "albedo": 0.1366652427845677, "diameterKM": 2.9783935583871664}, "name": "22gb829f89", "orbitals": {"eccentricity": 0.6260503701085393, "longitudeOfTheAscendingNode": 5.149125065256601, "semimajoraxisAU": 4.664071081069315, "periodYEARS": 5.128776976398199, "meanAnomaly": 0.07364443031514403, "perihelionDATE": 121625655.21654806, "inclination": 1.3110171192817381, "argumentOfPerihelion": 3.391686835713192}, "details": {"e8b70ec870": 2.8080798521097594, "37dca16888": 89.8832528509837, "ecf7771036": 69.5699968908913, "190c5g94be": 64.00272930686377, "f3e5ab7183": 77.60331465020961, "fc2a06dd12": 36.777122699946645, "8d82bb50e1": 54.24507335682754, "2803286365": 1.056290939841058, "3ge851b444": 71.41551174478772}}}, {"Asteroid": {"classification": {"orbitType": "stupid", "spinPeriodH": 1.714539074207282e+299, "type": {"A": 0.7209711960900705, "C": 0.2116667886027791, "B": 0.1651247405651609}, "albedo": 0.7796686777735721, "diameterKM": 75.88464641049252}, "name": "fd40e83132", "orbitals": {"eccentricity": 0.5749016451607968, "longitudeOfTheAscendingNode": 2.2931166234889524, "semimajoraxisAU": 3.212149520180764, "periodYEARS": 9.796963851869629, "meanAnomaly": 0.23906615838616144, "perihelionDATE": 119562916.2186212, "inclination": 0.2559048707252094, "argumentOfPerihelion": 1.8585816934684518}, "details": {"2aec98729d": 51.80892468118832, "107f095dg2": 82.63236256227263, "d49118g7a3": 25.695715094642583, "3g1ae8ac63": 38.27131543185626, "cf75917a8f": 59.656555730664515, "08e9efb574": 78.97111252167657, "9g5b983gec": 54.37533986442748, "32c2288db0": 7.720349885714662, "3130068f1f": 22.810613118751036, "feb0216634": 50.873080035667726, "gdb8ddbgcf": 62.81269006879826, "daf6309345": 13.117412553577974, "8945d98e15": 93.3588560172915, "587f522b1f": 82.09059604686135, "6de5048908": 32.01135809069238}}}, {"Asteroid": {"classification": {"orbitType": "smelly", "spinPeriodH": 6.801742290204887e+299, "type": {"A": 0.009459434805417777, "C": 0.248269154536348, "B": 0.3016470221932982}, "albedo": 0.4319038472925073, "diameterKM": 38.72743142773589}, "name": "c028374ffc", "orbitals": {"eccentricity": 0.42947235790705307, "longitudeOfTheAscendingNode": 5.201373528833396, "semimajoraxisAU": 2.02647588957953, "periodYEARS": 2.7628218007059284, "meanAnomaly": 3.056020238566064, "perihelionDATE": 205751410.03650326, "inclination": 1.058865850272144, "argumentOfPerihelion": 6.090693522613624}, "details": {"55243f6g55": 7.22859711732925, "eee0440a03": 3.770276446314976, "dedf902ab5": 1.663299246899307, "438f000b2g": 1.3194977474070766, "6f2dfd1762": 61.561240874891894, "0faecg9feg": 1.55544014582591, "6a019c1649": 62.29176053659137, "e3b32ab73a": 37.72512899694662, "d1e06a8210": 51.619066490026405, "44a2ad4d85": 62.420991527747354, "gda611aecc": 3.919770848485247, "d9a849gb5a": 4.5428974179891926, "d548883ff1": 55.686039135343755, "cea48ffg30": 62.1186167601646, "d1254c3e43": 11.135052572004637, "96d41903b3": 35.63853798313622, "ac1519gbea": 95.56192121185731, "66b9db556c": 82.1258286156463, "e056ee9bb4": 93.71977338318442, "g31c30c796": 85.50439404558347}}}, {"Asteroid": {"classification": {"orbitType": "arrogant", "spinPeriodH": 6.2929245969563525e+299, "type": {"A": 0.8340744442507697, "C": 0.6453536666314259, "B": 0.312808734642014}, "albedo": 0.6760958881477654, "diameterKM": 29.70879856681467}, "name": "559ebdd134", "orbitals": {"eccentricity": 0.5678279697282632, "longitudeOfTheAscendingNode": 1.6686102080551575, "semimajoraxisAU": 4.643409067475968, "periodYEARS": 0.1554064598769301, "meanAnomaly": 1.205238011243564, "perihelionDATE": 8174610.407015595, "inclination": 3.1234553495187436, "argumentOfPerihelion": 5.628100221369384}, "details": {"63g1674g03": 13.390303124416095, "31638af64g": 18.405814311899675, "d1c8886g27": 62.678916839807314, "012fcfb4da": 84.19599736344544}}}, {"Asteroid": {"classification": {"orbitType": "evil", "spinPeriodH": 9.751673584285991e+299, "type": {"A": 0.37916711058684605, "C": 0.9512551046323486, "B": 0.4853457145837925}, "albedo": 0.5635680763127935, "diameterKM": 45.77530445841471}, "name": "7849c8f5g1", "orbitals": {"eccentricity": 0.34469970715731346, "longitudeOfTheAscendingNode": 1.5816437484921075, "semimajoraxisAU": 2.4811128793899657, "periodYEARS": 0.5171322440045413, "meanAnomaly": 2.366898720396407, "perihelionDATE": 54910502.62638664, "inclination": 2.2593953998629006, "argumentOfPerihelion": 4.987303024863959}, "details": {"a4e22ce63c": 62.82722890886153, "d599da61a7": 21.575755804569294, "0996d18236": 86.69702066330466, "b6594e6f05": 60.82012349957052, "60c9d1gdg0": 78.58423833815876, "34c6248ccf": 8.221425969575597, "1g3410d764": 98.26169230066911, "eedb48716c": 25.896892856687185, "7g44952ag7": 18.47965220637593, "g85b43ceaa": 22.581601700593648, "gg1c532c97": 75.42952153781098, "0e5947fb6b": 11.991223701637027, "29e8198991": 77.3360560163575}}}, {"Asteroid": {"classification": {"orbitType": "smelly", "spinPeriodH": 5.4898068750171214e+299, "type": {"A": 0.9820001975130844, "C": 0.1750772290869228, "B": 0.5224478879119273}, "albedo": 0.8012986681514662, "diameterKM": 73.87513082943813}, "name": "01562b650e", "orbitals": {"eccentricity": 0.06288804239031576, "longitudeOfTheAscendingNode": 1.6770106682019985, "semimajoraxisAU": 4.422363906589258, "periodYEARS": 4.377158219309527, "meanAnomaly": 1.0780869978568055, "perihelionDATE": 112727215.84379348, "inclination": 2.985749640887453, "argumentOfPerihelion": 1.885538883465143}, "details": {"b5b69552a8": 47.1773231131198, "564b9g8151": 37.37173961707499}}}, {"Asteroid": {"classification": {"orbitType": "mad", "spinPeriodH": 8.114518407700899e+299, "type": {"A": 0.5347607211269841, "C": 0.13988321614655552, "B": 0.11806373713974827}, "albedo": 0.0856531425669298, "diameterKM": 22.977589457148397}, "name": "ae2d8daf87", "orbitals": {"eccentricity": 0.5043628617592077, "longitudeOfTheAscendingNode": 3.3299876578347503, "semimajoraxisAU": 4.407687607515593, "periodYEARS": 1.5022456508622262, "meanAnomaly": 2.463406200314471, "perihelionDATE": 232157028.03412876, "inclination": 0.6591576433433934, "argumentOfPerihelion": 3.3532831278841795}, "details": {"8443a33efg": 97.37896066483299, "426148c19d": 43.224565862374355, "ff63dgf28a": 47.3412252047212, "f75e42123d": 26.036102003951534, "acfab8b4ee": 70.66568681244455, "81128078ac": 34.982095389073294, "4535229237": 63.363849764829816, "a799b59eee": 65.77576347478124, "d5cf9edb4d": 34.64448693940785, "b7c53g7054": 65.5732356521409}}}, {"Asteroid": {"classification": {"orbitType": "arrogant", "spinPeriodH": 8.535191938721479e+299, "type": {"A": 0.12754012482175758, "C": 0.7549404669210248, "B": 0.5510213807499643}, "albedo": 0.9540651901296788, "diameterKM": 14.907959223582061}, "name": "4b2edf334a", "orbitals": {"eccentricity": 0.17412272635362303, "longitudeOfTheAscendingNode": 2.2819657528901605, "semimajoraxisAU": 3.980221213305415, "periodYEARS": 6.659196412253927, "meanAnomaly": 3.080002227419507, "perihelionDATE": 189598194.10871664, "inclination": 3.0170586608594503, "argumentOfPerihelion": 4.509217745812723}, "details": {"0e29c3gf02": 85.9111572444686, "2e05g5876f": 3.6636689695643034}}}, {"Asteroid": {"classification": {"orbitType": "sad", "spinPeriodH": 3.744202079645016e+299, "type": {"A": 0.5527777081034667, "C": 0.13056416181263242, "B": 0.04037565086775363}, "albedo": 0.7676480974131443, "diameterKM": 13.897557553375098}, "name": "97f89ed255", "orbitals": {"eccentricity": 0.9110659162245544, "longitudeOfTheAscendingNode": 5.87169344930883, "semimajoraxisAU": 2.28387629533558, "periodYEARS": 2.980007536733164, "meanAnomaly": 1.0657408554620253, "perihelionDATE": 178753173.44341254, "inclination": 2.6705236486874613, "argumentOfPerihelion": 1.1551565599978075}, "details": {"b61c007216": 8.32499647891208, "d717cg5471": 74.01146610650241, "9a3f1ef95c": 70.37976244649606, "917gb3156a": 3.222147914936279, "16d30cfcf6": 38.23410834606856, "0cdb8187ad": 90.09741149285982, "1cbg4245f7": 68.10010914867657, "ae79a46c46": 49.196842750051594, "d65364cc32": 76.73001734832494, "c9fa7fdeg6": 21.10605827341953, "ff1gd12a59": 72.8043341879345, "716c9eg52e": 83.53462417512533, "ga52e9e852": 7.52960446436103, "b0gb49ebc9": 82.8567704591194}}}]
